[{"OBJECT_NAME":"STARLINK-31594","OBJECT_ID":"2024-057N","EPOCH":"2026-03-09T09:30:58.688640","MEAN_MOTION":15.2760153,"ECCENTRICITY":0.00032858,"INCLINATION":43.0042,"RA_OF_ASC_NODE":200.0261,"ARG_OF_PERICENTER":297.6612,"MEAN_ANOMALY":62.3906,"EPHEMERIS_TYPE":0,"CLASSIFICATION_TYPE":"U","NORAD_CAT_ID":59332,"ELEMENT_SET_NO":999,"REV_AT_EPOCH":10966,"BSTAR":-0.00024083857,"MEAN_MOTION_DOT":-6.89e-5,"MEAN_MOTION_DDOT":0},{"OBJECT_NAME":"CZ-6A DEB","OBJECT_ID":"2022-151DE","EPOCH":"2026-03-09T09:45:43.657920","MEAN_MOTION":15.34292219,"ECCENTRICITY":0.00393756,"INCLINATION":99.0022,"RA_OF_ASC_NODE":218.5596,"ARG_OF_PERICENTER":192.6197,"MEAN_ANOMALY":167.4059,"EPHEMERIS_TYPE":0,"CLASSIFICATION_TYPE":"U","NORAD_CAT_ID":54359,"ELEMENT_SET_NO":999,"REV_AT_EPOCH":10560,"BSTAR":0.0065240017,"MEAN_MOTION_DOT":0.00228186,"MEAN_MOTION_DDOT":0}]
